{"type":"FeatureCollection","features":[{"type":"Feature","id":1,"geometry":{"type":"Polygon","coordinates":[[[-77.050276759769176,38.911944155940944],[-77.050290214102688,38.911942276415495],[-77.050362532320648,38.911927732826335],[-77.05041277016565,38.91191296450463],[-77.050428110384431,38.911903949542449],[-77.050444015957353,38.911895474834765],[-77.050460486948197,38.911887630464598],[-77.05047731575155,38.911880326438109],[-77.050494733097395,38.911873742822181],[-77.050512358428648,38.911867789697695],[-77.050530468532244,38.911862557028272],[-77.050548786622073,38.911857954850056],[-77.05055322504397,38.911857007053783],[-77.050567358818967,38.91185398314289],[-77.050586139130871,38.911850822093527],[-77.05060517355092,38.911848291515049],[-77.050624300785998,38.911846571644034],[-77.050643555299118,38.911845482298716],[-77.050662591257932,38.911845122720678],[-77.050661807479827,38.911748112220629],[-77.05066107255648,38.911654948260008],[-77.05066031892035,38.911421812673019],[-77.050660362885893,38.911305154609927],[-77.050664904091676,38.911270407460727],[-77.050669181600298,38.911237768377831],[-77.050675041039085,38.911208398637115],[-77.050684589561072,38.911178306628194],[-77.050695306702465,38.91115397945115],[-77.050713832203641,38.911117037203013],[-77.050750623347341,38.91108313183922],[-77.050710330996807,38.911057673738171],[-77.050687390374648,38.911047143930602],[-77.050652323372091,38.911024818446016],[-77.05062738830155,38.910998353731159],[-77.050557060279331,38.910923831130702],[-77.050461581510476,38.91082725791766],[-77.050340891000786,38.910703625416261],[-77.050272120525634,38.910629696520175],[-77.05023673428289,38.910595633173898],[-77.05022320052403,38.910582603917916],[-77.050161594786701,38.910531372903371],[-77.050034701663051,38.91043981244934],[-77.049913118907952,38.910357257932347],[-77.049814372214882,38.910284242399172],[-77.049719863915058,38.910220890932273],[-77.049511300968106,38.910072116597775],[-77.049437503151054,38.910012206318235],[-77.049402069553466,38.90997534114026],[-77.049374017459201,38.909941932036823],[-77.049343008173167,38.909900443689487],[-77.049322343168328,38.909878553127164],[-77.049292546336019,38.909856306080279],[-77.049298311470167,38.909839971517322],[-77.049304986772029,38.909805971204094],[-77.049314998463828,38.909761501784367],[-77.049343095145147,38.909642850007153],[-77.049339652160015,38.909549227721222],[-77.049339522995979,38.90954584964598],[-77.049340401384129,38.909298930503383],[-77.049342516247677,38.908572766751973],[-77.049342637402034,38.908531238217861],[-77.049341934908526,38.908515744156418],[-77.049342153409725,38.90849826786944],[-77.049342564797172,38.908492952770494],[-77.049343524929469,38.908480881178917],[-77.049345818813563,38.908463494098754],[-77.049349265776939,38.9084462866984],[-77.049353635165559,38.908429168991724],[-77.049359030931583,38.908412411185147],[-77.049365372180588,38.908395743062222],[-77.049370080595807,38.908385381472534],[-77.049380441535064,38.908362766140321],[-77.049391955234739,38.908339880069391],[-77.049404391477324,38.908317263857519],[-77.049417750386709,38.908295097671427],[-77.049432031900068,38.908273291427228],[-77.049447005363604,38.908251755138792],[-77.049462901367477,38.908230488708263],[-77.049479720160946,38.908209852469049],[-77.049495963594026,38.908190837973784],[-77.049663532686054,38.908056992889044],[-77.049821721380169,38.907930628490476],[-77.049843846451992,38.907914133775144],[-77.049864023411118,38.907898180388003],[-77.049883485156244,38.907881686801765],[-77.04990250839451,38.907864652898574],[-77.049920712842734,38.907847349091632],[-77.049938213669805,38.907829595165133],[-77.049955149292373,38.907811481143646],[-77.04997117376405,38.907792917091896],[-77.049986713548492,38.907773722660835],[-77.049994903662522,38.907763269471516],[-77.050008265127005,38.907745156971494],[-77.050020704102892,38.907726864697906],[-77.050032451116508,38.907708302468706],[-77.050043506168109,38.907689470284218],[-77.050053638669681,38.907670368243423],[-77.050063079210304,38.907650996247675],[-77.050071597265159,38.90763144447947],[-77.050079423423398,38.907611712840186],[-77.050086430608872,38.907591441050435],[-77.050088501223115,38.907584773984254],[-77.050093225009576,38.907563692421483],[-77.050097360223759,38.907541800359333],[-77.050100572956168,38.907519728525592],[-77.05010296709878,38.90749765704274],[-77.050104565647942,38.90747549581743],[-77.050105368604363,38.907453244849734],[-77.050105357529716,38.90743748024277],[-77.050104286016037,38.907405681228198],[-77.050103378583785,38.907328444027151],[-77.050103305319581,38.907322624664623],[-77.050103453225191,38.907254161142568],[-77.050103642393736,38.907162374983812],[-77.050105369541072,38.906322156364169],[-77.050109942343639,38.905429877125258],[-77.050110195112055,38.905395816434634],[-77.050111121685077,38.905270581913676],[-77.050111975848992,38.905157157372173],[-77.050116801752424,38.904510463598122],[-77.050117318577037,38.904442017899655],[-77.050115967814079,38.903848638139316],[-77.050115866602127,38.903835855326399],[-77.050115133992449,38.903744853233256],[-77.050114477664977,38.903663967489372],[-77.05011356999789,38.903553525436521],[-77.050114412365119,38.903423345322516],[-77.050114517152466,38.903408400414747],[-77.050114704119167,38.903346332760464],[-77.050115706125112,38.903312100576841],[-77.050116609371784,38.903284985036819],[-77.050119123600282,38.903253544794538],[-77.05012637043049,38.903213995000662],[-77.050131307447913,38.903201471266698],[-77.050137418808731,38.903186694939414],[-77.050143587968918,38.903172143795899],[-77.050150079423645,38.903156871845127],[-77.050155834147205,38.903143176672636],[-77.050166070554795,38.9031252456478],[-77.050174363296819,38.903113981640736],[-77.050188186133482,38.903097490410566],[-77.050198911296093,38.903086045189575],[-77.050217446615832,38.903065660320699],[-77.050243418791112,38.903062865571314],[-77.050253413408697,38.903061789278006],[-77.050330540865133,38.90304617161803],[-77.050404873508441,38.903023708761886],[-77.050475408516235,38.902994671398666],[-77.050541223898875,38.902959510351963],[-77.050603206919234,38.902917612677044],[-77.050724986882116,38.902742995919603],[-77.050748883453153,38.902691151453375],[-77.050767971157768,38.902621148223105],[-77.050769842794836,38.902610571598082],[-77.050781876131623,38.902542228967789],[-77.05078255029062,38.902533760818613],[-77.050789190057941,38.902451808902541],[-77.050779041043299,38.90238162019061],[-77.050761797994923,38.902338234424441],[-77.050752077259816,38.902319014812065],[-77.050745210154602,38.902308324874333],[-77.050716299115081,38.902263358697603],[-77.050672453664887,38.902211399497958],[-77.050635687840924,38.902177138636844],[-77.050631638648738,38.902173374898119],[-77.050621233016116,38.902163677405781],[-77.050563214112202,38.902120912830419],[-77.050534184775643,38.90210397166107],[-77.050499331146852,38.90208364585957],[-77.050430472129335,38.902052326518223],[-77.050419920988205,38.902048736737548],[-77.050357363727414,38.902027494986051],[-77.050312302724777,38.902016821479897],[-77.050281032154089,38.902009421064143],[-77.050234060295423,38.902002802111504],[-77.050202630432125,38.90199837450151],[-77.050122193213411,38.90199448139623],[-77.050124402413005,38.901725905243723],[-77.05012536381372,38.901633929486501],[-77.05012693178341,38.901240353594631],[-77.050133078825596,38.90085010880324],[-77.050131608338845,38.900824615774638],[-77.050131129668785,38.900799662821882],[-77.050130895759537,38.900794906508011],[-77.050130298939138,38.900782277042836],[-77.050130635741397,38.900752999726983],[-77.050130490000384,38.900726064791769],[-77.050130649123503,38.900706426497614],[-77.050130701636874,38.900699129703035],[-77.050131370670073,38.900666879485179],[-77.050133656893095,38.900639222837043],[-77.050134452165693,38.900606161812185],[-77.050134433943782,38.900580235757914],[-77.050134422977735,38.900564633281846],[-77.050135313329534,38.900519230761418],[-77.050135274327232,38.900463739275267],[-77.050135705382871,38.900420949375821],[-77.050136827690096,38.900377528594092],[-77.050137826857608,38.900339332714339],[-77.050137696509722,38.90030149765353],[-77.05013697600576,38.900260509919292],[-77.050136021962217,38.900215288355199],[-77.050134838051903,38.900171057809118],[-77.050133194027509,38.900128268797964],[-77.05013178766005,38.900095569049363],[-77.050129912442102,38.900051879300662],[-77.050129754927454,38.900008188814475],[-77.050130310577927,38.899962245931498],[-77.050131992633908,38.899911528132968],[-77.050133337458078,38.899856666632267],[-77.050132146591181,38.899802526888159],[-77.050132929382784,38.899751719390487],[-77.050132538391793,38.899703885155596],[-77.05013165732592,38.899664068572932],[-77.050131478452698,38.899655600789224],[-77.050132931140908,38.899606594675205],[-77.050133685924621,38.899581551104063],[-77.050134282796449,38.89956146219987],[-77.050134837997348,38.899514888728042],[-77.050134907620503,38.899499133072226],[-77.050135038612041,38.899472279087476],[-77.0501350031561,38.899421832272417],[-77.050134739037759,38.899374088063887],[-77.050134348364168,38.899326704243762],[-77.050134677370238,38.899286346637368],[-77.050137033805896,38.899211035712511],[-77.050138972812576,38.899165092229168],[-77.050140550267912,38.899113203381035],[-77.050142676257508,38.899038072719883],[-77.050143563925374,38.898988886675546],[-77.050144058211487,38.898954069139151],[-77.0501442228679,38.898942313154315],[-77.050142702001608,38.898894299230264],[-77.050141278620629,38.89883736698404],[-77.050140547364876,38.898781065025595],[-77.050138766493617,38.898723952764364],[-77.050138866201209,38.898685396924726],[-77.050139759566065,38.898644318402397],[-77.050140757694606,38.898604681172905],[-77.05014154781226,38.898564323363374],[-77.050141380985536,38.898507390574458],[-77.050140424366546,38.898458475568027],[-77.050139543761219,38.898419298570197],[-77.050139472371129,38.898416136664999],[-77.050137944934292,38.898358754040345],[-77.050137238316012,38.898337494603823],[-77.050137190114867,38.8983345218643],[-77.050136623103,38.898298668817482],[-77.050137653338567,38.898271913533023],[-77.050138323998425,38.898242014483522],[-77.050138424387413,38.89823723099888],[-77.050138161917502,38.898191828954332],[-77.050136409753605,38.89814273411929],[-77.050136951067046,38.898109222770337],[-77.050136925234369,38.898072468653375],[-77.050135276825159,38.898023373772737],[-77.050136051617415,38.897961215722439],[-77.050138657433436,38.897912749600501],[-77.050139776343499,38.897864554367203],[-77.050141486907833,38.89782167381501],[-77.050139827040596,38.897756273796006],[-77.050139337940777,38.897716457031358],[-77.050138723428461,38.897678622160612],[-77.050134418444202,38.897605746331827],[-77.050136002263088,38.897562955915753],[-77.050137945949231,38.897376121576364],[-77.050137692477932,38.897327116174623],[-77.050136142365858,38.897155426390562],[-77.050134980149281,38.897027174777911],[-77.050131092510796,38.8969903862777],[-77.050126164561291,38.896916772020987],[-77.050123281921074,38.896850129361304],[-77.050121730209497,38.896790945057489],[-77.050121358816341,38.896738156187062],[-77.050120035953043,38.896676539524734],[-77.050118275864321,38.896616094137016],[-77.050118470847792,38.896565467030072],[-77.050118070517001,38.896504300388358],[-77.050117467436394,38.896449890108549],[-77.050119710988866,38.896378092457624],[-77.05011978196039,38.896315033854478],[-77.050120431273285,38.896254767596439],[-77.050120398804054,38.896208554684051],[-77.050121414837648,38.896161620651931],[-77.050121144877764,38.896121938907378],[-77.050120436491056,38.896081716848585],[-77.050119948679395,38.896043701744986],[-77.050119780964437,38.896034693448918],[-77.050119732892185,38.896031900875464],[-77.050118393443952,38.895979472747989],[-77.050118965146211,38.895956411080277],[-77.050119318278391,38.895950402347161],[-77.050121258009881,38.895922007138402],[-77.050121988243205,38.895878478389726],[-77.050122009595668,38.895876055129506],[-77.050121971353107,38.895821626584471],[-77.050124140270526,38.895774890238521],[-77.050123647078664,38.895729218021962],[-77.050123480019693,38.895671924869625],[-77.050123368550146,38.895660934707735],[-77.050125061087584,38.895608865610562],[-77.050127081082877,38.895547067334057],[-77.050129299054348,38.895438920913676],[-77.050130937406848,38.895358970935277],[-77.050132308352858,38.895292191306318],[-77.050134782816158,38.895171775371729],[-77.050134423225131,38.894840537773149],[-77.05013555908991,38.894488490177395],[-77.050138674333297,38.894148152592464],[-77.050139117986092,38.89381172576693],[-77.050139224574423,38.893733767272963],[-77.050139314749941,38.893665258566983],[-77.050139345504761,38.8936434132521],[-77.050138326778878,38.893506036016952],[-77.050141462110176,38.893391159909292],[-77.050142594231858,38.893165067291932],[-77.05014355919883,38.892897968623366],[-77.050145319775027,38.892631229935546],[-77.050148529045799,38.892392038220393],[-77.050149411793726,38.892221194028842],[-77.050161697086224,38.892102989875568],[-77.049393063969632,38.892110235863463],[-77.04902770621888,38.892109606060274],[-77.048972665102625,38.892109512041273],[-77.04885129838749,38.892109869147774],[-77.048697886886529,38.892110311559478],[-77.04857672765317,38.892110668294265],[-77.047973972212276,38.892108935568224],[-77.047814209122194,38.892109001076186],[-77.046891824863224,38.892109014675668],[-77.046794076534709,38.892108963792275],[-77.046678011991801,38.892109010231792],[-77.046517660968817,38.892108984117662],[-77.045314607596097,38.892108826450453],[-77.045058583149341,38.892108835410646],[-77.044940316907315,38.892108790889147],[-77.044808448901478,38.892108751466509],[-77.04436835103472,38.892108739298628],[-77.043634673965357,38.892108655345794],[-77.043479625326981,38.892108623080276],[-77.043236637825899,38.892108623193593],[-77.043232614931284,38.892108624682642],[-77.041910246013416,38.892107755384281],[-77.041891111275604,38.89210767216457],[-77.041733192490085,38.892107728694036],[-77.041580576034491,38.892107693038831],[-77.041252162490125,38.89210762931927],[-77.040681118911962,38.892107784557822],[-77.040678248580804,38.892107560348158],[-77.040602735685169,38.892107496537974],[-77.039685884769355,38.892108171982819],[-77.039638981686437,38.892108097825627],[-77.039483241136935,38.892107519987924],[-77.039125341188878,38.8921064603228],[-77.038919009154014,38.892106177927793],[-77.038912496445064,38.892106180097606],[-77.038489158833031,38.892106320361954],[-77.038007794182803,38.892105487067191],[-77.037625687933144,38.892104800024761],[-77.037133822515187,38.892104416929236],[-77.036735913199465,38.892104362585322],[-77.036712916987952,38.8921043517988],[-77.03654374784594,38.892104233688997],[-77.03639979962027,38.892104143510821],[-77.03627368354222,38.892104056627218],[-77.035870471303184,38.892102919977063],[-77.035504041068876,38.892100960006943],[-77.034446331077902,38.892101276722443],[-77.034217221930206,38.892101082820965],[-77.033927538795623,38.892100834013569],[-77.033895217300596,38.89210080736386],[-77.033879506000133,38.892100577704369],[-77.033655294342907,38.892097300416332],[-77.033439923914841,38.892094155292725],[-77.033272298325357,38.892091707842816],[-77.033001415370379,38.892090883854301],[-77.032688574281337,38.892089710652542],[-77.032356038197477,38.892098451281278],[-77.032163411754851,38.892098234231284],[-77.032161106387548,38.892098270899581],[-77.031966129770709,38.892100990901078],[-77.031967996431518,38.891945091476181],[-77.031969307862283,38.891836324011578],[-77.031968366370236,38.89156165894159],[-77.031967060131734,38.891218980728013],[-77.031967062153001,38.890940531852266],[-77.031966233831426,38.890635418397672],[-77.031965179215192,38.890519823206439],[-77.031964317964935,38.890424172504751],[-77.031964293216447,38.890420388993583],[-77.031965039392148,38.890310666766446],[-77.031965037030886,38.890305396866964],[-77.031964718567153,38.890109149471769],[-77.031965968434406,38.88981160244056],[-77.031964691704175,38.889534685269929],[-77.03197478096358,38.888616818842657],[-77.031974734091023,38.888615107263483],[-77.031972231310604,38.888508746016328],[-77.031962197231081,38.888083346055588],[-77.031958711259534,38.887737605379385],[-77.031958372011644,38.887726471114021],[-77.031953901157735,38.887575005426513],[-77.031959558553567,38.885975385497233],[-77.031959401858998,38.885625590009653],[-77.031959381637733,38.88558044900406],[-77.031964561412025,38.884973435627089],[-77.031786016817406,38.884975853561571],[-77.031670022182382,38.884977425506932],[-77.031624253600242,38.88497797841201],[-77.031099601455921,38.88497992097362],[-77.030487480191255,38.884981793960627],[-77.02996928313722,38.884985441352775],[-77.029896670983803,38.88498591038217],[-77.029720787115622,38.884984423847911],[-77.029619002680448,38.884983548867055],[-77.029514936145674,38.884982674374207],[-77.029338233926921,38.884981097386856],[-77.028950737133584,38.884980022994554],[-77.0285549414386,38.884978048507548],[-77.028267259210509,38.884980460670761],[-77.028253889355412,38.884980553989763],[-77.028126645765838,38.884982836799331],[-77.028127321791814,38.884943469995534],[-77.028128124635799,38.884904193244708],[-77.028129029434893,38.88486041227668],[-77.028130268479302,38.884816631227814],[-77.028129918604719,38.884776994418381],[-77.02812944084647,38.884734565040105],[-77.028128836270341,38.88469204560824],[-77.028128127998954,38.884649616284854],[-77.028127315997111,38.884607186986131],[-77.028126727672358,38.884576648701795],[-77.028126139312675,38.884546020333481],[-77.028125308949413,38.884515482107112],[-77.028124839043755,38.884492961256797],[-77.027955544620383,38.884509397164358],[-77.027944584110912,38.884510480793686],[-77.027928806214405,38.88451246641263],[-77.027913016861902,38.884514632199853],[-77.027897331310044,38.884516978127905],[-77.027881657353291,38.88451950421878],[-77.027866110248439,38.884522210444949],[-77.027850540161381,38.884525096842253],[-77.027835096925898,38.884528163374995],[-77.027819653759451,38.884531410073365],[-77.027804210661699,38.884534836937327],[-77.027788998146647,38.884538443912142],[-77.027721361079443,38.88455710734376],[-77.027653827778067,38.884575950879288],[-77.027586398276895,38.884595064602742],[-77.027519095626545,38.884614448508835],[-77.027451919826532,38.884634102597815],[-77.027384951521441,38.884653936767172],[-77.027318006334099,38.884674041144137],[-77.027251164943763,38.884694415710044],[-77.027184427349724,38.884715060464963],[-77.02711794335157,38.884735885290524],[-77.02704019758896,38.88475384801967],[-77.026952413740503,38.884774110152165],[-77.026696572400326,38.884823453788044],[-77.026603450215049,38.884839068551564],[-77.026552728072943,38.884846232752082],[-77.026511951874056,38.884851331753026],[-77.026464248678209,38.884856387267682],[-77.026417213768852,38.88486090210862],[-77.025976248023127,38.884855154578645],[-77.025690166073318,38.884851425328456],[-77.025687284668962,38.884851516046069],[-77.025489618073379,38.884851469270835],[-77.024835186683077,38.884853141694428],[-77.024440199194913,38.884852864685229],[-77.024427636130298,38.884852867313569],[-77.024181100423917,38.884853008702812],[-77.024055815549374,38.884853034575841],[-77.024023428038305,38.884852563798056],[-77.023889728714295,38.884850636403961],[-77.023770217672791,38.884848949196311],[-77.023637670957953,38.884847084337807],[-77.023540727666472,38.884846383247847],[-77.023443680704418,38.884845862265891],[-77.023346760556393,38.884845431261851],[-77.023249817387409,38.884845090265806],[-77.023152770487641,38.88484474920984],[-77.023055850430197,38.884844588215913],[-77.022958907321765,38.884844427146071],[-77.022861860510872,38.884844356099926],[-77.022764940512118,38.884844375032287],[-77.022667997490501,38.884844483972543],[-77.022109228872267,38.884843149748619],[-77.022051957412998,38.884843070492842],[-77.021911159603945,38.884845385123221],[-77.021702958293048,38.884844667295106],[-77.021498491311903,38.884843894358134],[-77.020911140375532,38.884847694439806],[-77.02074862734743,38.884847723425246],[-77.020316976659501,38.88484797948319],[-77.020073092618858,38.884850724171557],[-77.020055573533838,38.884850907349062],[-77.019915317269209,38.884852913195424],[-77.019753369613966,38.884855192795804],[-77.019736311581838,38.884855465931331],[-77.019407366808437,38.884855791309555],[-77.019394918878149,38.884855342958275],[-77.019382470947932,38.88485489460561],[-77.019204569295653,38.884848483000631],[-77.018963374401537,38.884778392139495],[-77.018618729706432,38.88468187770841],[-77.018614372666974,38.884680662270995],[-77.0181768023199,38.884559163040372],[-77.017746402962857,38.884439778049142],[-77.017698222711658,38.884428074459798],[-77.017558649884236,38.88439404383174],[-77.017559748129756,38.884688437690812],[-77.017559531783547,38.884746001302197],[-77.017558338156618,38.885000668512902],[-77.017557896347597,38.885078771271132],[-77.017410597156783,38.885080144581316],[-77.017303753398352,38.885081241467049],[-77.016651970831276,38.885083678401216],[-77.015981630252313,38.885079628202696],[-77.015450522249651,38.885080330262987],[-77.015361646906811,38.885080251903574],[-77.015202821559768,38.885080092519708],[-77.015055187350725,38.885078039717023],[-77.015032008980057,38.885077952618921],[-77.014475439920147,38.885075680753062],[-77.014000912146173,38.885077089865469],[-77.013813398679559,38.885074589848273],[-77.013764298720261,38.885073965058815],[-77.013663100875519,38.885066319815955],[-77.013661364915933,38.885089471566324],[-77.013659421490985,38.885112623340866],[-77.01365735128104,38.885135775130117],[-77.013655154286013,38.885158926934047],[-77.01365529434716,38.885228291474313],[-77.013655829373675,38.885614841153036],[-77.013657926675421,38.885733120979523],[-77.013659092407622,38.88580176472226],[-77.013661422998837,38.885934457930055],[-77.013657193327646,38.886056657136344],[-77.013617637357427,38.886122612124318],[-77.013604167777288,38.886144945474385],[-77.01357465705739,38.886183072382927],[-77.013551979488881,38.886212163083492],[-77.013516901668083,38.886250290622876],[-77.013484933598676,38.88627664383683],[-77.013171370987536,38.886535112087643],[-77.013056589149329,38.886629731002408],[-77.012994934118723,38.886680545151911],[-77.012746328664093,38.886485739269482],[-77.012280745183958,38.88614073208629],[-77.012143880242249,38.88603930300296],[-77.011630268425634,38.885658688046306],[-77.011527423410072,38.885589802128266],[-77.011437971729762,38.885521491344342],[-77.011218401994739,38.885361046307523],[-77.0111147157684,38.885287971204889],[-77.010980527824614,38.88518471178682],[-77.010876842824757,38.88511640190589],[-77.010793702803966,38.885086699969449],[-77.010620733684576,38.885075590474521],[-77.010567830337408,38.885075595274039],[-77.010499839614624,38.885074754619083],[-77.009204110744378,38.88507270192418],[-77.009188331947072,38.885072703166784],[-77.009062931470936,38.885073073302038],[-77.008938222529238,38.885073353165886],[-77.007573443375549,38.885077053011742],[-77.007417614701211,38.885076342344007],[-77.007258328303962,38.885075721767194],[-77.007100886034834,38.885075100861023],[-77.007083032587033,38.885075011861559],[-77.006132950458067,38.885072092863155],[-77.006024147072253,38.88507218861136],[-77.0058950583078,38.885072285284132],[-77.005761255497518,38.885072382046992],[-77.005742456945086,38.885072382973078],[-77.005330790439132,38.885070988178242],[-77.005007238580333,38.885069894471705],[-77.004767825034051,38.885070129703934],[-77.004348885902246,38.885070551438702],[-77.003949402304812,38.885071286307657],[-77.00365203710129,38.885071295989377],[-77.003518902780897,38.885071300078636],[-77.003518906403954,38.885144718408334],[-77.003518906870738,38.885154177211497],[-77.003518810086689,38.885294978253796],[-77.003518460204816,38.885445328186798],[-77.003518006584258,38.885595588035144],[-77.003517449233186,38.885745937966469],[-77.003516765090311,38.885896197813871],[-77.00351641124746,38.885966373125981],[-77.003515954159127,38.886046457661081],[-77.003516315439143,38.886127082673461],[-77.003517352495606,38.886355084796669],[-77.003517587570443,38.886447420704947],[-77.003519939178915,38.8873875352932],[-77.003519940183907,38.887407894232894],[-77.003519843803417,38.887556892845659],[-77.003521760339297,38.887621464856501],[-77.003519848783853,38.887657786702427],[-77.003519726211081,38.887743186147922],[-77.003519729688378,38.887813631677979],[-77.003519732983364,38.887880383771474],[-77.003519638193666,38.888061632370047],[-77.003520347964283,38.888430165136576],[-77.00352174318914,38.889141205395788],[-77.003521873263239,38.889207678210219],[-77.00351774863752,38.889712327622654],[-77.003516958421002,38.889816014061964],[-77.003516144920255,38.88991506118618],[-77.003515857238895,38.890859904678216],[-77.003515861449884,38.890945304071806],[-77.003515738837834,38.891030117923577],[-77.003517978028128,38.891791820924425],[-77.003517978761494,38.891806684740573],[-77.003517396134939,38.891912983563536],[-77.003516824957572,38.892017741952401],[-77.00351660797287,38.892058829148446],[-77.003516151472112,38.89215161540362],[-77.003516025364476,38.892165578385381],[-77.003517202907688,38.892669344554285],[-77.003518404211775,38.893187091669759],[-77.00351908746191,38.893484494009066],[-77.003519216305804,38.893525932510492],[-77.003519092637305,38.893589351443481],[-77.003518993894687,38.893690695614659],[-77.003518643803204,38.893837622144922],[-77.003514755356107,38.894462433775416],[-77.003513280084704,38.894700894355701],[-77.003513280581856,38.894710983728743],[-77.003513157931394,38.894795211980039],[-77.003512931583217,38.894880431153695],[-77.003512607696948,38.895091677401375],[-77.003512383206541,38.895214641632535],[-77.00365532621187,38.895272651134135],[-77.003824425792246,38.895341469647676],[-77.003830650746607,38.895343991786618],[-77.004112284304114,38.895458478560151],[-77.004677018454046,38.895692494690245],[-77.004982862538839,38.895807068469303],[-77.005290807157465,38.895942396627412],[-77.005343373991451,38.895959131779357],[-77.005427249923187,38.895979297644402],[-77.005495643860286,38.895992401619324],[-77.00554080926112,38.895998444099064],[-77.005596291747977,38.896003486138653],[-77.005696950389222,38.896004490208369],[-77.005819879557819,38.895996899101711],[-77.005829862210589,38.895994403286196],[-77.005902980145407,38.895978680013002],[-77.006048789407046,38.895947323434918],[-77.006142183741915,38.895926464190772],[-77.0062489158354,38.895910820003301],[-77.006328973867454,38.895902996429378],[-77.006415695263769,38.895900379270849],[-77.006519097708434,38.89590558938874],[-77.006712554002419,38.895918613535983],[-77.006768382684825,38.895927330412754],[-77.006812626032726,38.895934246265881],[-77.006939374104405,38.895962912434726],[-77.007016092209142,38.895986365637967],[-77.007119498985048,38.896033274953673],[-77.007232913407435,38.896095831090889],[-77.007309634690472,38.896147957731309],[-77.007376349875983,38.896197481535381],[-77.007413045686803,38.89623135967792],[-77.00743700371946,38.89626692318506],[-77.007479766216491,38.896330411419576],[-77.007539823967207,38.896429454543423],[-77.007593195856941,38.896528498069529],[-77.007626566307295,38.896617120198187],[-77.007642547546354,38.896653684110007],[-77.007673276310001,38.896723992388978],[-77.007726646629024,38.896804793908998],[-77.00778062610047,38.89686784888314],[-77.007823397774359,38.896903834445318],[-77.00794063237683,38.896988919551205],[-77.008018334679463,38.89703825305812],[-77.008103334031617,38.897086640128506],[-77.008213579845659,38.897140349307492],[-77.008216265958993,38.897141664339856],[-77.008492864149758,38.897253231168733],[-77.008937880268931,38.897427680974481],[-77.009066674905384,38.897477108951122],[-77.009277886519826,38.897561816030347],[-77.009300712764215,38.897571002746396],[-77.009812933265451,38.897779594545774],[-77.010591339845007,38.898096530869928],[-77.011087174139263,38.898298362275725],[-77.011183784282508,38.898337719611632],[-77.011907132324751,38.89864525667474],[-77.012429652985361,38.898864393712145],[-77.013399303235062,38.899203811663526],[-77.013662033960642,38.899295774617492],[-77.014078595381207,38.899441579531654],[-77.014158582931856,38.899469576858607],[-77.014167045152831,38.8994725395834],[-77.014260798304988,38.899505354643068],[-77.014289920366778,38.899515548548798],[-77.015157141363034,38.89981909306627],[-77.015561534197886,38.899960633303635],[-77.015588431519348,38.899970043453905],[-77.015937359494998,38.900092176759131],[-77.016200212054898,38.900184170007861],[-77.016403737673343,38.900261829701051],[-77.016531422844039,38.900304709510486],[-77.017720016983688,38.900712415756921],[-77.018141759982811,38.900859457524014],[-77.018185928957365,38.900874854949926],[-77.018498836251851,38.900983716875807],[-77.018633050038218,38.901030466943311],[-77.018776233892083,38.901080332306925],[-77.018800307262254,38.901088426949457],[-77.018929217478288,38.901131745344671],[-77.019065438135044,38.901179881876281],[-77.019163623194814,38.901214584023819],[-77.019481941156428,38.901326595348074],[-77.019518605072506,38.901339651347158],[-77.019739279337131,38.901413581895774],[-77.019799002043854,38.901433291084643],[-77.019920754380152,38.90147678075509],[-77.020014859793733,38.901513608853641],[-77.020076784549801,38.901533164380815],[-77.02026066819181,38.90159125455795],[-77.020426107301859,38.90165181596177],[-77.020702818494058,38.901748607094774],[-77.020753548914001,38.901766191415518],[-77.020770209252177,38.901771971820033],[-77.020915759605643,38.901822437694427],[-77.02123237608798,38.901932012286117],[-77.021528343344812,38.902032941802076],[-77.021606848483273,38.902057430039484],[-77.021650430172116,38.90207012375398],[-77.021703591812084,38.902081914836927],[-77.021917304575908,38.902109143232323],[-77.02191879642487,38.902274392253396],[-77.021919969855901,38.902528905134226],[-77.021920339886037,38.902607557024524],[-77.021920432718005,38.902909616195174],[-77.021921354856303,38.902946622347827],[-77.022118955889724,38.9029453329386],[-77.022568576634299,38.902953408510022],[-77.022947580825871,38.902950524066824],[-77.023458440896576,38.902955206034342],[-77.024045290084814,38.902936250242604],[-77.024049705583408,38.902936303383775],[-77.024109516560372,38.902937002715177],[-77.024322946848883,38.903004665273897],[-77.024513884087199,38.903069485523766],[-77.024848026752693,38.903187694636401],[-77.024882870744122,38.903199812466184],[-77.02504081033139,38.903254729685848],[-77.025267954130555,38.903333720085243],[-77.02538763684538,38.903374321818781],[-77.025701833445908,38.903480912038638],[-77.025985940463912,38.903586355039373],[-77.02599170563235,38.90358849774524],[-77.026288000286755,38.903696234427713],[-77.026595499934487,38.903798860069479],[-77.026845406739454,38.903882247295776],[-77.027047546019233,38.903954717921998],[-77.027052146632045,38.903956320343802],[-77.027528224457058,38.90412150341993],[-77.027694631406817,38.904179234662962],[-77.028083944273718,38.904311456422484],[-77.028346331535431,38.904401494603746],[-77.028879734848118,38.904589368295689],[-77.029625289502917,38.904842370382013],[-77.029897253226579,38.904940753386605],[-77.030032808730411,38.904989787114353],[-77.031537644662478,38.905514388328889],[-77.031952755926767,38.905657535348404],[-77.032372331314093,38.905802184047538],[-77.033594481224938,38.906226997140159],[-77.033773905142169,38.906289355261769],[-77.034570165996627,38.906566120124921],[-77.034802463346892,38.906649045086198],[-77.035050844794185,38.906732388152562],[-77.035292309823845,38.906816903864851],[-77.035432760861028,38.906865596524788],[-77.035633718509189,38.906938530061964],[-77.036187412178336,38.907139489289726],[-77.036164966569757,38.907166242029334],[-77.036156176313611,38.907179342890018],[-77.036149472036868,38.90719080358506],[-77.036144865106039,38.907200299810611],[-77.036140272359972,38.907215038890911],[-77.036137674383383,38.907230155704596],[-77.036137684278785,38.907249685802704],[-77.036139914531404,38.907259720413862],[-77.036143381303063,38.907275429902398],[-77.0361521098081,38.907299695694419],[-77.036162346118843,38.907318934360141],[-77.03618262022573,38.907352421124827],[-77.036230640749423,38.907399069490744],[-77.036254146497768,38.907416475337449],[-77.036279679978577,38.907431024903083],[-77.036305200010077,38.907441781952429],[-77.036328309276001,38.907450323691975],[-77.036346943363895,38.907455380588267],[-77.036368009514703,38.907459175555722],[-77.036390700665152,38.907461699836006],[-77.036414601921322,38.907463277858078],[-77.036433856494142,38.907464199714951],[-77.036531488925988,38.907467033881993],[-77.036542522599788,38.907467102498153],[-77.036608413062325,38.907466955753172],[-77.0366306758593,38.907466020915116],[-77.036652926482788,38.907463833916083],[-77.036672398524118,38.907461656793423],[-77.036696643253748,38.907458541300223],[-77.03672129071245,38.907453876239359],[-77.036745129991615,38.907447040415427],[-77.036759715144214,38.907447936662088],[-77.036900438064819,38.907460684155254],[-77.037039781259466,38.907480656612144],[-77.037177133677815,38.907507791173664],[-77.037311895758791,38.907541952912972],[-77.037313141119256,38.907542303840849],[-77.037348575459177,38.90755079639969],[-77.03741155388937,38.907559865673491],[-77.037436861794546,38.907561452044334],[-77.03765842939427,38.907639780494286],[-77.037790476139619,38.907683626530876],[-77.037963680443042,38.907744016395725],[-77.038156027694896,38.907811426264637],[-77.038497538186419,38.907932908916045],[-77.039076391586732,38.908130350889351],[-77.039202640127044,38.908173035188923],[-77.03993742340927,38.908432884344627],[-77.040533123561289,38.90864000630706],[-77.041469722807491,38.908964680754579],[-77.04157206922865,38.909000398509761],[-77.041678740278186,38.909037664067995],[-77.041799468978184,38.909079843057292],[-77.041817124523831,38.909086034481675],[-77.042718435088034,38.909397478262107],[-77.042714116080091,38.90940521801042],[-77.042701874745234,38.909429860311384],[-77.04269144204774,38.90945196159651],[-77.042682808148029,38.909474341482237],[-77.042675970018294,38.909491937279661],[-77.042670573187891,38.909509676683776],[-77.042662670616153,38.909540361995461],[-77.042656566763355,38.90957119078324],[-77.042652250182897,38.909602298176807],[-77.042650470230143,38.909633548777592],[-77.042650849449913,38.909650718545862],[-77.042650857869901,38.909664798586881],[-77.042653032536776,38.909695903610107],[-77.04265773222437,38.90972700771124],[-77.042664241923049,38.909757831892321],[-77.042671464031926,38.909784575032255],[-77.042682287647906,38.909818352373627],[-77.042695647487349,38.909851561261242],[-77.042711151465141,38.909884075720761],[-77.042728822713357,38.909916012851333],[-77.042749030037115,38.909947120283412],[-77.04277138124182,38.909977091875511],[-77.042795899475252,38.910006071751482],[-77.042822584836387,38.91003422206019],[-77.042851056485617,38.910060948388981],[-77.042881337580297,38.910086412878343],[-77.042909459404797,38.910106536204317],[-77.042938653004114,38.910125803336797],[-77.042968929750643,38.910143953028808],[-77.042979379259549,38.910149723534296],[-77.043000289719842,38.910161111396363],[-77.043032363874616,38.910177143449275],[-77.043065521087414,38.910191913925907],[-77.043099404095287,38.910205693207452],[-77.04312138491693,38.910213855665461],[-77.043143365481967,38.910221585718922],[-77.043165703138982,38.910228757118929],[-77.043188409499351,38.910235504986147],[-77.043211472945444,38.910241685191203],[-77.043234536144325,38.910247451007926],[-77.04329147652652,38.910257285052445],[-77.043349487147438,38.910263740542923],[-77.043400658684391,38.910267090666373],[-77.043439572372861,38.910267787863894],[-77.043452543458002,38.91026778304051],[-77.043504057639836,38.91026579104291],[-77.043518469181208,38.910264515499257],[-77.043555224289321,38.91026112367382],[-77.043606020346488,38.910253789950602],[-77.043658256157741,38.910244059447614],[-77.043709048907317,38.910231365715752],[-77.043759125240911,38.910216149893543],[-77.043769983889206,38.910212128104355],[-77.04380740125427,38.910198259246528],[-77.043854223010257,38.91017797290565],[-77.043897804506429,38.910157120237656],[-77.043939228427917,38.910133881153385],[-77.043967246803078,38.910116601615812],[-77.043978483325958,38.910108390784572],[-77.044008735743958,38.910086696307012],[-77.044037188801894,38.910063885464972],[-77.044063842321947,38.910039669992784],[-77.044088685030687,38.910014464279769],[-77.044111728464529,38.909988277331088],[-77.044129724263058,38.909966028931201],[-77.044146289920107,38.909943078417925],[-77.044161771419809,38.909919569794582],[-77.044171123327189,38.909902954870738],[-77.044778009721753,38.910111321091357],[-77.044889008322826,38.910149419829821],[-77.045002175277702,38.910188508545431],[-77.045117498796998,38.910228163844138],[-77.045751056111314,38.910449459688955],[-77.046484096732399,38.910704926244044],[-77.046502837170038,38.910711530911051],[-77.04663366236683,38.910756943879377],[-77.046743936583638,38.910795050149474],[-77.047059283564778,38.910904564112741],[-77.047318767626336,38.910994966139064],[-77.047727093095858,38.911137248990343],[-77.048074873373452,38.911258439783268],[-77.048107672515115,38.911269965970497],[-77.048428640920179,38.911382572785485],[-77.048558291982403,38.911427209363438],[-77.048571312490225,38.911431744156175],[-77.048737038679732,38.911489472671768],[-77.048792061671875,38.911508628468802],[-77.048848341778267,38.911528234131431],[-77.048928298789875,38.911556081496101],[-77.048938286215147,38.911559563541893],[-77.049140570921708,38.911628302377025],[-77.049381031137628,38.911712248831698],[-77.049566030958928,38.911777931396365],[-77.049758399928265,38.911845141947552],[-77.050004304590317,38.911930183815855],[-77.050067336811239,38.911942372134554],[-77.050141434522629,38.911949646124469],[-77.050216115141581,38.911949614051423],[-77.050276759769176,38.911944155940944]]]},"properties":{"ID":0,"GIS_ID":"DDOT_CBD_1","GLOBALID":"{88E0BE6C-77A4-4C9B-96DA-39C3D223AA41}","CREATED":null,"EDITED":null,"SHAPE.AREA":0,"SHAPE.LEN":0,"OBJECTID":1}}]}